NORAD_CAT_ID,OBJECT_NAME,OBJECT_TYPE,EPOCH,MEAN_MOTION,ECCENTRICITY,INCLINATION,RA_OF_ASC_NODE,ARG_OF_PERICENTER,MEAN_ANOMALY,BSTAR,MEAN_MOTION_DOT,MEAN_MOTION_DDOT,TLE_LINE0,TLE_LINE1,TLE_LINE2,SEMIMAJOR_AXIS,PERIOD,APOGEE,PERIGEE,DECAYED
54094.0,STARLINK-5219,PAYLOAD,2022-11-07 00:00:00,15.73248509,0.0002113,53.2171,61.8152,24.4808,101.4431,-0.00080136,-0.00111848,0.0,0 STARLINK-5219,1 54094U 22136AV  22311.00001157 -.00111848  00000-0 -80136-3 0  9995,2 54094  53.2171  61.8152 0002113  24.4808 101.4431 15.73248509  3235,6727.757,91.53,351.043,348.2,0.0
54094.0,STARLINK-5219,PAYLOAD,2022-11-07 14:00:01,15.73070005,0.0002744,53.2168,58.93,37.0039,154.3788,0.00032778,0.0004538,0.0,0 STARLINK-5219,1 54094U 22136AV  22311.58334491  .00045380  00000-0  32778-3 0  9992,2 54094  53.2168  58.9300 0002744  37.0039 154.3788 15.73070005  3325,6728.266,91.541,351.977,348.285,0.0
54094.0,STARLINK-5219,PAYLOAD,2022-11-07 22:00:00,15.7313908,0.0002706,53.2165,57.2805,35.0725,245.0955,-0.00081406,-0.00113079,0.0,0 STARLINK-5219,1 54094U 22136AV  22311.91667824 -.00113079  00000-0 -81406-3 0  9993,2 54094  53.2165  57.2805 0002706  35.0725 245.0955 15.73139080  1301,6728.069,91.537,351.754,348.11300000000006,0.0
54094.0,STARLINK-5219,PAYLOAD,2022-11-08 00:00:02,15.73150322,0.0002634,53.2167,56.8675,34.8628,357.6131,-0.00023527,-0.00033445,0.0,0 STARLINK-5219,1 54094U 22136AV  22312.00002315 -.00033445  00000-0 -23527-3 0  9990,2 54094  53.2167  56.8675 0002634  34.8628 357.6131 15.73150322  3391,6728.0369999999975,91.536,351.6740000000001,348.13,0.0
54094.0,STARLINK-5219,PAYLOAD,2022-11-08 10:00:01,15.73063726,0.0002595,53.2171,54.8061,33.7531,199.7737,0.0024889,0.00362051,0.0,0 STARLINK-5219,1 54094U 22136AV  22312.41668981  .00362051  00000-0  24889-2 0  9999,2 54094  53.2171  54.8061 0002595  33.7531 199.7737 15.73063726  3455,6728.284000000002,91.541,351.895,348.403,0.0
54094.0,STARLINK-5219,PAYLOAD,2022-11-08 14:00:01,15.73192615,0.0002619,53.217,53.9826,29.5992,68.2725,0.0022391,0.00326031,0.0,0 STARLINK-5219,1 54094U 22136AV  22312.58334491  .00326031  00000-0  22391-2 0  9997,2 54094  53.2170  53.9826 0002619  29.5992  68.2725 15.73192615  1303,6727.916,91.534,351.543,348.019,0.0
54094.0,STARLINK-5219,PAYLOAD,2022-11-08 22:00:00,15.73486522,0.0002448,53.2172,52.3324,18.671,168.24400000000003,-0.00059493,-0.00084324,0.0,0 STARLINK-5219,1 54094U 22136AV  22312.91667824 -.00084324  00000-0 -59493-3 0  9995,2 54094  53.2172  52.3324 0002448  18.6710 168.2440 15.73486522  3533,6727.078,91.517,350.59,347.297,0.0
54094.0,STARLINK-5219,PAYLOAD,2022-11-09 14:00:01,15.73251661,0.0002622,53.2169,49.0332,16.5052,348.7969,-0.00065892,-0.00092311,0.0,0 STARLINK-5219,1 54094U 22136AV  22313.58334491 -.00092311  00000-0 -65892-3 0  9995,2 54094  53.2169  49.0332 0002622  16.5052 348.7969 15.73251661  1309,6727.748000000001,91.53,351.37699999999984,347.849,0.0
54094.0,STARLINK-5219,PAYLOAD,2022-11-09 22:00:01,15.73201617,0.000263,53.2164,47.383,15.3168,78.9837,-0.00087915,-0.00122263,0.0,0 STARLINK-5219,1 54094U 22136AV  22313.91668981 -.00122263  00000-0 -87915-3 0  9996,2 54094  53.2164  47.3830 0002630  15.3168  78.9837 15.73201617  3698,6727.891,91.533,351.525,347.986,0.0
54094.0,STARLINK-5219,PAYLOAD,2022-11-10 14:00:01,15.73138917,0.0002804,53.2168,44.0855,18.6245,253.2954,0.00041709,0.00058176,0.0,0 STARLINK-5219,1 54094U 22136AV  22314.58334491  .00058176  00000-0  41709-3 0  9996,2 54094  53.2168  44.0855 0002804  18.6245 253.2954 15.73138917  1304,6728.069,91.537,351.821,348.048,0.0
54094.0,STARLINK-5219,PAYLOAD,2022-11-10 22:00:00,15.73170907,0.0002745,53.2169,42.4352,14.3245,346.4782,7.4855e-05,9.884e-05,0.0,0 STARLINK-5219,1 54094U 22136AV  22314.91667824  .00009884  00000-0  74855-4 0  9993,2 54094  53.2169  42.4352 0002745  14.3245 346.4782 15.73170907  3857,6727.978,91.535,351.69,347.996,0.0
54094.0,STARLINK-5219,PAYLOAD,2022-11-11 14:00:01,15.73218363,0.0003013999999999,53.2166,39.1375,16.2616,162.3693,0.00056161,0.00079017,0.0,0 STARLINK-5219,1 54094U 22136AV  22315.58334491  .00079017  00000-0  56161-3 0  9992,2 54094  53.2166  39.1375 0003014  16.2616 162.3693 15.73218363  1308,6727.843000000003,91.532,351.736,347.68,0.0
54094.0,STARLINK-5219,PAYLOAD,2022-11-11 16:00:01,15.73216989,0.0003056,53.2164,38.7253,15.8329,275.1081,0.00077837,0.00110158,0.0,0 STARLINK-5219,1 54094U 22136AV  22315.66668981  .00110158  00000-0  77837-3 0  9990,2 54094  53.2164  38.7253 0003056  15.8329 275.1081 15.73216989  3968,6727.847,91.532,351.76800000000014,347.656,0.0
54094.0,STARLINK-5219,PAYLOAD,2022-11-11 22:00:00,15.73339354,0.0002933,53.2164,37.4831,15.8835,251.7317,-0.00069153,-0.00097164,0.0,0 STARLINK-5219,1 54094U 22136AV  22315.91667824 -.00097164  00000-0 -69153-3 0  9998,2 54094  53.2164  37.4831 0002933  15.8835 251.7317 15.73339354  1301,6727.498000000001,91.525,351.336,347.39,0.0
54094.0,STARLINK-5219,PAYLOAD,2022-11-12 08:00:01,15.73293691,0.0002838,53.2164,35.4243,16.3328,92.5929,-0.00055569,-0.00078219,0.0,0 STARLINK-5219,1 54094U 22136AV  22316.33334491 -.00078219  00000-0 -55569-3 0  9992,2 54094  53.2164  35.4243 0002838  16.3328  92.5929 15.73293691  4073,6727.628000000002,91.528,351.402,347.584,0.0
54094.0,STARLINK-5219,PAYLOAD,2022-11-12 14:00:01,15.73228689,0.0003041,53.2164,34.1884,13.837,71.8954,-0.00018554,-0.00026619,0.0,0 STARLINK-5219,1 54094U 22136AV  22316.58334491 -.00026619  00000-0 -18554-3 0  9999,2 54094  53.2164  34.1884 0003041  13.8370  71.8954 15.73228689  1302,6727.813,91.532,351.724,347.63199999999995,0.0
54094.0,STARLINK-5219,PAYLOAD,2022-11-12 22:00:00,15.73233487,0.0002954,53.2165,32.5376,10.5566,164.122,-0.00058602,-0.00082207,0.0,0 STARLINK-5219,1 54094U 22136AV  22316.91667824 -.00082207  00000-0 -58602-3 0  9998,2 54094  53.2165  32.5376 0002954  10.5566 164.1220 15.73233487  4165,6727.8,91.531,351.652,347.677,0.0
54094.0,STARLINK-5219,PAYLOAD,2022-11-13 06:00:02,15.73210386,0.0002836,53.2165,30.8874,8.572000000000001,255.0967,-0.00025125,-0.00035757,0.0,0 STARLINK-5219,1 54094U 22136AV  22317.25002315 -.00035757  00000-0 -25125-3 0  9996,2 54094  53.2165  30.8874 0002836   8.5720 255.0967 15.73210386  4214,6727.866,91.533,351.639,347.8230000000001,0.0
54094.0,STARLINK-5219,PAYLOAD,2022-11-13 14:00:01,15.73158397,0.000322,53.2161,29.2399,8.7374,343.7963,0.00027107,0.00037531,0.0,0 STARLINK-5219,1 54094U 22136AV  22317.58334491  .00037531  00000-0  27107-3 0  9997,2 54094  53.2161  29.2399 0003220   8.7374 343.7963 15.73158397  1300,6728.014,91.536,352.045,347.712,0.0
54094.0,STARLINK-5219,PAYLOAD,2022-11-13 22:00:00,15.73161843,0.0003063,53.2157,27.5889,10.7688,70.6627,4.0355e-05,5.036e-05,0.0,0 STARLINK-5219,1 54094U 22136AV  22317.91667824  .00005036  00000-0  40355-4 0  9999,2 54094  53.2157  27.5889 0003063  10.7688  70.6627 15.73161843  1309,6728.004,91.535,351.93,347.80800000000005,0.0
54094.0,STARLINK-5219,PAYLOAD,2022-11-14 14:00:01,15.73229788,0.0003325,53.2161,24.2905,11.7463,247.4953,6.6536e-06,3.11e-06,0.0,0 STARLINK-5219,1 54094U 22136AV  22318.58334491  .00000311  00000-0  66536-5 0  9995,2 54094  53.2161  24.2905 0003325  11.7463 247.4953 15.73229788  4425,6727.81,91.531,351.912,347.43800000000016,0.0
54094.0,STARLINK-5219,PAYLOAD,2022-11-14 22:00:00,15.73227529,0.0003147,53.2166,22.6391,8.9884,339.2216,-0.00046889,-0.00066011,0.0,0 STARLINK-5219,1 54094U 22136AV  22318.91667824 -.00066011  00000-0 -46889-3 0  9999,2 54094  53.2166  22.6391 0003147   8.9884 339.2216 15.73227529  1305,6727.816999999999,91.532,351.7990000000001,347.564,0.0
54094.0,STARLINK-5219,PAYLOAD,2022-11-15 08:00:01,15.73210192,0.0003324,53.2161,20.5788,11.8358,177.6062,-0.00042296,-0.0005961,0.0,0 STARLINK-5219,1 54094U 22136AV  22319.33335648 -.00059610  00000-0 -42296-3 0  9997,2 54094  53.2161  20.5788 0003324  11.8358 177.6062 15.73210192  4543,6727.866,91.533,351.967,347.495,0.0
54094.0,STARLINK-5219,PAYLOAD,2022-11-15 14:00:01,15.73135692,0.0003548,53.2159,19.3429,13.6097,152.4615,0.00070659,0.00099474,0.0,0 STARLINK-5219,1 54094U 22136AV  22319.58334491  .00099474  00000-0  70659-3 0  9993,2 54094  53.2159  19.3429 0003548  13.6097 152.4615 15.73135692  1303,6728.079000000002,91.537,352.331,347.556,0.0
54094.0,STARLINK-5219,PAYLOAD,2022-11-15 22:00:00,15.73219463,0.0003315,53.2156,17.6917,13.6465,241.3151,-8.572899999999999e-05,-0.00012651,0.0,0 STARLINK-5219,1 54094U 22136AV  22319.91667824 -.00012651  00000-0 -85729-4 0  9998,2 54094  53.2156  17.6917 0003315  13.6465 241.3151 15.73219463  1306,6727.84,91.532,351.935,347.474,0.0
54094.0,STARLINK-5219,PAYLOAD,2022-11-16 00:00:00,15.73210557,0.0003252,53.2155,17.2788,13.3482,353.8541,1.1049e-05,9.28e-06,0.0,0 STARLINK-5219,1 54094U 22136AV  22320.00001157  .00000928  00000-0  11049-4 0  9997,2 54094  53.2155  17.2788 0003252  13.3482 353.8541 15.73210557  4651,6727.865,91.533,351.918,347.542,0.0
54094.0,STARLINK-5219,PAYLOAD,2022-11-16 14:00:01,15.73263019,0.0003507,53.2166,14.3901,10.6452,62.2662,-0.00075315,-0.00105336,0.0,0 STARLINK-5219,1 54094U 22136AV  22320.58335648 -.00105336  00000-0 -75315-3 0  9991,2 54094  53.2166  14.3901 0003507  10.6452  62.2662 15.73263019  1303,6727.715999999999,91.53,351.94,347.221,0.0
54094.0,STARLINK-5219,PAYLOAD,2022-11-16 22:00:08,15.73129143,0.0003185,53.2174,12.7347,7.2752,155.0091,0.00080374,0.00113386,0.0,0 STARLINK-5219,1 54094U 22136AV  22320.91675926  .00113386  00000-0  80374-3 0  9997,2 54094  53.2174  12.7347 0003185   7.2752 155.0091 15.73129143  1301,6728.097,91.537,352.105,347.819,0.0
54094.0,STARLINK-5219,PAYLOAD,2022-11-17 06:00:00,15.73237813,0.0003426,53.2162,11.0935,9.2311,241.5695,-0.00025465,-0.00036278,0.0,0 STARLINK-5219,1 54094U 22136AV  22321.25001157 -.00036278  00000-0 -25465-3 0  9990,2 54094  53.2162  11.0935 0003426   9.2311 241.5695 15.73237813  4841,6727.7869999999975,91.531,351.957,347.347,0.0
